FENGYUN 3D              
1 43010U 17072A   26164.90551859  .00000220  00000+0  12578-3 0  9995
2 43010  99.0117 139.2680 0002569  67.6319 292.5128 14.19739544444525
NOAA 20 (JPSS-1)        
1 43013U 17073A   26164.89993288  .00000023  00000+0  31833-4 0  9990
2 43013  98.7773 104.3917 0000287  70.7854 289.3353 14.19511149444008
GOES 17                 
1 43226U 18022A   26164.88674207 -.00000173  00000+0  00000+0 0  9991
2 43226   0.9286  85.7676 0000404  32.8739  13.2853  1.00270214 30397
SENTINEL-3B             
1 43437U 18039A   26164.89359814  .00000106  00000+0  61918-4 0  9993
2 43437  98.6250 232.4730 0000756  83.1152 277.0114 14.26733944423657
FENGYUN 2H              
1 43491U 18050A   26164.92025230 -.00000123  00000+0  00000+0 0  9992
2 43491   3.0214  79.1143 0001927 135.5062  98.3246  1.00269971 29401
METOP-C                 
1 43689U 18087A   26164.90061316  .00000100  00000+0  65306-4 0  9993
2 43689  98.6645 224.5642 0001649 133.3698 226.7617 14.21511286394365
GEO-KOMPSAT-2A          
1 43823U 18100A   26164.92987235 -.00000334  00000+0  00000+0 0  9993
2 43823   0.0499 133.5741 0001791 311.5598 280.1240  1.00272120 27593
METEOR-M2 2             
1 44387U 19038A   26164.94310225  .00000135  00000+0  78271-4 0  9999
2 44387  98.9137 152.1802 0002137  53.4860 306.6515 14.24365448360830
ARKTIKA-M 1             
1 47719U 21016A   26160.51571443 -.00000149  00000+0  00000+0 0  9996
2 47719  63.2417  58.7595 7285674 269.8905  14.6803  2.00625436 38630
FENGYUN 3E              
1 49008U 21062A   26164.96021729 -.00000201  00000+0 -74078-4 0  9991
2 49008  98.7489 168.4037 0002822  91.2064 268.9435 14.19903555256128
GOES 18                 
1 51850U 22021A   26164.66351669  .00000107  00000+0  00000+0 0  9993
2 51850   0.0052 236.9985 0000468 287.1488 199.6934  1.00271975  6555
NOAA 21 (JPSS-2)        
1 54234U 22150A   26164.93295434  .00000040  00000+0  39583-4 0  9991
2 54234  98.7061 103.7768 0001464 161.2915 198.8316 14.19564912186084
METEOSAT-12 (MTG-I1)    
1 54743U 22170C   26164.90442034  .00000001  00000+0  00000+0 0  9999
2 54743   0.7346  22.4123 0003154  72.1078 132.8623  1.00271951 12944
TIANMU-1 03             
1 55973U 23039A   26164.94585797  .00015944  00000+0  31518-3 0  9992
2 55973  97.5222 338.7887 0004250 107.0848 253.0867 15.47201732180339
TIANMU-1 04             
1 55974U 23039B   26164.93658338  .00016283  00000+0  31526-3 0  9990
2 55974  97.5161 337.9324 0004821 104.3175 255.8611 15.47797880180348
TIANMU-1 05             
1 55975U 23039C   26164.92646831  .00015704  00000+0  31128-3 0  9990
2 55975  97.5205 338.3845 0003866 122.3108 237.8516 15.47128453180310
TIANMU-1 06             
1 55976U 23039D   26164.93976148  .00016154  00000+0  31383-3 0  9992
2 55976  97.5213 339.0308 0004263 118.9454 241.2224 15.47703034180341
FENGYUN 3G              
1 56232U 23055A   26164.88845094  .00025148  00000+0  40838-3 0  9993
2 56232  49.9937   3.0183 0006912 282.9036  77.1159 15.52492094179495
METEOR-M2 3             
1 57166U 23091A   26164.93666784  .00000010  00000+0  22960-4 0  9991
2 57166  98.6090 219.9814 0004176 163.7099 196.4215 14.24046518154054
TIANMU-1 07             
1 57399U 23101A   26164.96042053  .00006657  00000+0  23335-3 0  9990
2 57399  97.2597 215.7027 0003947 127.9803 232.1795 15.29773965161158
TIANMU-1 08             
1 57400U 23101B   26164.92707140  .00006583  00000+0  23072-3 0  9990
2 57400  97.2585 215.4412 0005443 122.8754 237.3011 15.29778458161144
TIANMU-1 09             
1 57401U 23101C   26164.97596064  .00006728  00000+0  23556-3 0  9995
2 57401  97.2544 214.9065 0004368 133.9244 226.2358 15.29809239161154
TIANMU-1 10             
1 57402U 23101D   26164.94354153  .00007079  00000+0  24786-3 0  9990
2 57402  97.2623 215.9219 0005978 134.6552 225.5177 15.29780200161149
FENGYUN 3F              
1 57490U 23111A   26164.94421060  .00000048  00000+0  42891-4 0  9997
2 57490  98.6835 235.0132 0001590  95.4572 264.6786 14.19938564148405
ARKTIKA-M 2             
1 58584U 23198A   26160.78386103  .00000212  00000+0  00000+0 0  9997
2 58584  63.2205 155.1874 6900401 267.4353  18.7899  2.00606537 18179
TIANMU-1 11             
1 58645U 23205A   26164.97355505  .00005772  00000+0  22054-3 0  9994
2 58645  97.3443 186.5806 0009338  27.8075 332.3661 15.26966344137030
TIANMU-1 12             
1 58646U 23205B   26164.94384378  .00006242  00000+0  23867-3 0  9998
2 58646  97.3432 186.3078 0007132  15.2139 344.9314 15.26929645137015
TIANMU-1 13             
1 58647U 23205C   26164.97571424  .00005973  00000+0  22953-3 0  9997
2 58647  97.3461 186.6113 0006287 354.0336   6.0827 15.26783913137015
TIANMU-1 14             
1 58648U 23205D   26164.96101448  .00005907  00000+0  22666-3 0  9990
2 58648  97.3397 185.7811 0007256 357.8569   2.2638 15.26828317137011
TIANMU-1 19             
1 58660U 23208A   26164.95486897  .00008587  00000+0  28452-3 0  9996
2 58660  97.4503 281.2379 0004063 342.7871  17.3232 15.31530617136833
