OBJECT_NAME,OBJECT_ID,EPOCH,MEAN_MOTION,ECCENTRICITY,INCLINATION,RA_OF_ASC_NODE,ARG_OF_PERICENTER,MEAN_ANOMALY,EPHEMERIS_TYPE,CLASSIFICATION_TYPE,NORAD_CAT_ID,ELEMENT_SET_NO,REV_AT_EPOCH,BSTAR,MEAN_MOTION_DOT,MEAN_MOTION_DDOT
FENGYUN 3D,2017-072A,2026-06-13T21:43:56.806176,14.19739544,.00025692,99.0117,139.2680,67.6319,292.5128,0,U,43010,999,44452,.12577783E-3,.22E-5,0
NOAA 20 (JPSS-1),2017-073A,2026-06-13T21:35:54.200832,14.19511149,.00002873,98.7773,104.3917,70.7854,289.3353,0,U,43013,999,44400,.3183327E-4,.23E-6,0
GOES 17,2018-022A,2026-06-13T21:16:54.514848,1.00270214,.00004044,0.9286,85.7676,32.8739,13.2853,0,U,43226,999,3039,0,-.173E-5,0
SENTINEL-3B,2018-039A,2026-06-13T21:26:46.879296,14.26733944,.00007564,98.6250,232.4730,83.1152,277.0114,0,U,43437,999,42365,.61917607E-4,.106E-5,0
FENGYUN 2H,2018-050A,2026-06-13T22:05:09.798720,1.00269971,.00019276,3.0214,79.1143,135.5062,98.3246,0,U,43491,999,2940,0,-.123E-5,0
METOP-C,2018-087A,2026-06-13T21:36:52.977024,14.21511286,.00016491,98.6645,224.5642,133.3698,226.7617,0,U,43689,999,39436,.65305548E-4,.1E-5,0
GEO-KOMPSAT-2A,2018-100A,2026-06-13T22:19:00.971040,1.00272120,.00017913,0.0499,133.5741,311.5598,280.1240,0,U,43823,999,2759,0,-.334E-5,0
METEOR-M2 2,2019-038A,2026-06-13T22:38:04.034400,14.24365448,.00021374,98.9137,152.1802,53.4860,306.6515,0,U,44387,999,36083,.78270573E-4,.135E-5,0
ARKTIKA-M 1,2021-016A,2026-06-09T12:22:37.726752,2.00625436,.7285674,63.2417,58.7595,269.8905,14.6803,0,U,47719,999,3863,0,-.149E-5,0
FENGYUN 3E,2021-062A,2026-06-13T23:02:42.773856,14.19903555,.00028223,98.7489,168.4037,91.2064,268.9435,0,U,49008,999,25612,-.74078139E-4,-.201E-5,0
GOES 18,2022-021A,2026-06-13T15:55:27.842016,1.00271975,.00004688,0.0052,236.9985,287.1488,199.6934,0,U,51850,999,655,0,.107E-5,0
NOAA 21 (JPSS-2),2022-150A,2026-06-13T22:23:27.254976,14.19564912,.00014644,98.7061,103.7768,161.2915,198.8316,0,U,54234,999,18608,.39582727E-4,.4E-6,0
METEOSAT-12 (MTG-I1),2022-170C,2026-06-13T21:42:21.917376,1.00271951,.00031544,0.7346,22.4123,72.1078,132.8623,0,U,54743,999,1294,0,.1E-7,0
TIANMU-1 03,2023-039A,2026-06-13T22:42:02.128608,15.47201732,.00042508,97.5222,338.7887,107.0848,253.0867,0,U,55973,999,18033,.31518123E-3,.15944E-3,0
TIANMU-1 04,2023-039B,2026-06-13T22:28:40.804032,15.47797880,.00048217,97.5161,337.9324,104.3175,255.8611,0,U,55974,999,18034,.31526442E-3,.16283E-3,0
TIANMU-1 05,2023-039C,2026-06-13T22:14:06.861984,15.47128453,.00038662,97.5205,338.3845,122.3108,237.8516,0,U,55975,999,18031,.3112834E-3,.15704E-3,0
TIANMU-1 06,2023-039D,2026-06-13T22:33:15.391872,15.47703034,.00042637,97.5213,339.0308,118.9454,241.2224,0,U,55976,999,18034,.3138307E-3,.16154E-3,0
FENGYUN 3G,2023-055A,2026-06-13T21:19:22.161216,15.52492094,.00069121,49.9937,3.0183,282.9036,77.1159,0,U,56232,999,17949,.40837928E-3,.25148E-3,0
METEOR-M2 3,2023-091A,2026-06-13T22:28:48.101376,14.24046518,.00041764,98.6090,219.9814,163.7099,196.4215,0,U,57166,999,15405,.22959829E-4,.1E-6,0
TIANMU-1 07,2023-101A,2026-06-13T23:03:00.333792,15.29773965,.00039477,97.2597,215.7027,127.9803,232.1795,0,U,57399,999,16115,.23335052E-3,.6657E-4,0
TIANMU-1 08,2023-101B,2026-06-13T22:14:58.968960,15.29778458,.00054433,97.2585,215.4412,122.8754,237.3011,0,U,57400,999,16114,.23071786E-3,.6583E-4,0
TIANMU-1 09,2023-101C,2026-06-13T23:25:22.999296,15.29809239,.00043681,97.2544,214.9065,133.9244,226.2358,0,U,57401,999,16115,.23555757E-3,.6728E-4,0
TIANMU-1 10,2023-101D,2026-06-13T22:38:41.988192,15.29780200,.00059786,97.2623,215.9219,134.6552,225.5177,0,U,57402,999,16114,.2478622E-3,.7079E-4,0
FENGYUN 3F,2023-111A,2026-06-13T22:39:39.795840,14.19938564,.00015909,98.6835,235.0132,95.4572,264.6786,0,U,57490,999,14840,.4289088E-4,.48E-6,0
ARKTIKA-M 2,2023-198A,2026-06-09T18:48:45.592992,2.00606537,.69004015,63.2205,155.1874,267.4353,18.7899,0,U,58584,999,1817,0,.212E-5,0
TIANMU-1 11,2023-205A,2026-06-13T23:21:55.156320,15.26966344,.00093381,97.3443,186.5806,27.8075,332.3661,0,U,58645,999,13703,.22054435E-3,.5772E-4,0
TIANMU-1 12,2023-205B,2026-06-13T22:39:08.102592,15.26929645,.00071324,97.3432,186.3078,15.2139,344.9314,0,U,58646,999,13701,.23866576E-3,.6242E-4,0
TIANMU-1 13,2023-205C,2026-06-13T23:25:01.710336,15.26783913,.00062878,97.3461,186.6113,354.0336,6.0827,0,U,58647,999,13701,.22953251E-3,.5973E-4,0
TIANMU-1 14,2023-205D,2026-06-13T23:03:51.651072,15.26828317,.00072568,97.3397,185.7811,357.8569,2.2638,0,U,58648,999,13701,.22666282E-3,.5907E-4,0
TIANMU-1 19,2023-208A,2026-06-13T22:55:00.679008,15.31530617,.00040636,97.4503,281.2379,342.7871,17.3232,0,U,58660,999,13683,.28451684E-3,.8587E-4,0
